CCSDS_OMM_VERS = 2.0
CREATION_DATE  = 
ORIGINATOR     = 

OBJECT_NAME    = IDEFIX & ARIANE 42P R/B
OBJECT_ID      = 2002-021B
CENTER_NAME    = EARTH
REF_FRAME      = TEME
TIME_SYSTEM    = UTC
MEAN_ELEMENT_THEORY = SGP/SGP4

EPOCH          = 2026-02-15T19:41:35.554560
MEAN_MOTION    = 14.31010125
ECCENTRICITY   = .00106347
INCLINATION    = 98.5848
RA_OF_ASC_NODE = 345.6914
ARG_OF_PERICENTER = 251.0888
MEAN_ANOMALY   = 108.9143

EPHEMERIS_TYPE = 0
CLASSIFICATION_TYPE = U
NORAD_CAT_ID   = 27422
ELEMENT_SET_NO = 999
REV_AT_EPOCH   = 24089
BSTAR          = .12949752E-3
MEAN_MOTION_DOT = .297E-5
MEAN_MOTION_DDOT = 0

CCSDS_OMM_VERS = 2.0
CREATION_DATE  = 
ORIGINATOR     = 

OBJECT_NAME    = AQUA
OBJECT_ID      = 2002-022A
CENTER_NAME    = EARTH
REF_FRAME      = TEME
TIME_SYSTEM    = UTC
MEAN_ELEMENT_THEORY = SGP/SGP4

EPOCH          = 2026-02-15T20:32:09.238272
MEAN_MOTION    = 14.61921809
ECCENTRICITY   = .00012587
INCLINATION    = 98.4134
RA_OF_ASC_NODE = 13.8299
ARG_OF_PERICENTER = 48.5246
MEAN_ANOMALY   = 34.7556

EPHEMERIS_TYPE = 0
CLASSIFICATION_TYPE = U
NORAD_CAT_ID   = 27424
ELEMENT_SET_NO = 999
REV_AT_EPOCH   = 26554
BSTAR          = .23941226E-3
MEAN_MOTION_DOT = .1149E-4
MEAN_MOTION_DDOT = 0

CCSDS_OMM_VERS = 2.0
CREATION_DATE  = 
ORIGINATOR     = 

OBJECT_NAME    = CZ-4B R/B
OBJECT_ID      = 2002-024C
CENTER_NAME    = EARTH
REF_FRAME      = TEME
TIME_SYSTEM    = UTC
MEAN_ELEMENT_THEORY = SGP/SGP4

EPOCH          = 2026-02-15T19:16:01.277184
MEAN_MOTION    = 14.14543584
ECCENTRICITY   = .00512024
INCLINATION    = 98.8890
RA_OF_ASC_NODE = 100.3145
ARG_OF_PERICENTER = 85.4667
MEAN_ANOMALY   = 32.6714

EPHEMERIS_TYPE = 0
CLASSIFICATION_TYPE = U
NORAD_CAT_ID   = 27432
ELEMENT_SET_NO = 999
REV_AT_EPOCH   = 22614
BSTAR          = .47894099E-4
MEAN_MOTION_DOT = .49E-6
MEAN_MOTION_DDOT = 0

CCSDS_OMM_VERS = 2.0
CREATION_DATE  = 
ORIGINATOR     = 

OBJECT_NAME    = MIDORI II (ADEOS-II)
OBJECT_ID      = 2002-056A
CENTER_NAME    = EARTH
REF_FRAME      = TEME
TIME_SYSTEM    = UTC
MEAN_ELEMENT_THEORY = SGP/SGP4

EPOCH          = 2026-02-15T19:43:47.247168
MEAN_MOTION    = 14.29268635
ECCENTRICITY   = .00021635
INCLINATION    = 98.7730
RA_OF_ASC_NODE = 5.1541
ARG_OF_PERICENTER = 72.3958
MEAN_ANOMALY   = 287.7460

EPHEMERIS_TYPE = 0
CLASSIFICATION_TYPE = U
NORAD_CAT_ID   = 27597
ELEMENT_SET_NO = 999
REV_AT_EPOCH   = 20717
BSTAR          = .14891694E-3
MEAN_MOTION_DOT = .333E-5
MEAN_MOTION_DDOT = 0

CCSDS_OMM_VERS = 2.0
CREATION_DATE  = 
ORIGINATOR     = 

OBJECT_NAME    = H-2A R/B
OBJECT_ID      = 2002-056E
CENTER_NAME    = EARTH
REF_FRAME      = TEME
TIME_SYSTEM    = UTC
MEAN_ELEMENT_THEORY = SGP/SGP4

EPOCH          = 2026-02-15T20:42:05.456160
MEAN_MOTION    = 14.33745370
ECCENTRICITY   = .00692311
INCLINATION    = 98.3163
RA_OF_ASC_NODE = 8.0646
ARG_OF_PERICENTER = 226.0102
MEAN_ANOMALY   = 188.2229

EPHEMERIS_TYPE = 0
CLASSIFICATION_TYPE = U
NORAD_CAT_ID   = 27601
ELEMENT_SET_NO = 999
REV_AT_EPOCH   = 21098
BSTAR          = .12516518E-3
MEAN_MOTION_DOT = .315E-5
MEAN_MOTION_DDOT = 0

CCSDS_OMM_VERS = 2.0
CREATION_DATE  = 
ORIGINATOR     = 

OBJECT_NAME    = CZ-4B R/B
OBJECT_ID      = 2003-049C
CENTER_NAME    = EARTH
REF_FRAME      = TEME
TIME_SYSTEM    = UTC
MEAN_ELEMENT_THEORY = SGP/SGP4

EPOCH          = 2026-02-15T22:16:04.594080
MEAN_MOTION    = 14.54996738
ECCENTRICITY   = .00471394
INCLINATION    = 98.6855
RA_OF_ASC_NODE = 40.9829
ARG_OF_PERICENTER = 298.9269
MEAN_ANOMALY   = 60.7203

EPHEMERIS_TYPE = 0
CLASSIFICATION_TYPE = U
NORAD_CAT_ID   = 28059
ELEMENT_SET_NO = 999
REV_AT_EPOCH   = 18343
BSTAR          = .12938017E-3
MEAN_MOTION_DOT = .513E-5
MEAN_MOTION_DDOT = 0

CCSDS_OMM_VERS = 2.0
CREATION_DATE  = 
ORIGINATOR     = 

OBJECT_NAME    = CZ-2C R/B
OBJECT_ID      = 2004-012C
CENTER_NAME    = EARTH
REF_FRAME      = TEME
TIME_SYSTEM    = UTC
MEAN_ELEMENT_THEORY = SGP/SGP4

EPOCH          = 2026-02-15T17:10:31.011744
MEAN_MOTION    = 15.61942114
ECCENTRICITY   = .00152398
INCLINATION    = 97.7291
RA_OF_ASC_NODE = 109.9674
ARG_OF_PERICENTER = 35.4919
MEAN_ANOMALY   = 324.7349

EPHEMERIS_TYPE = 0
CLASSIFICATION_TYPE = U
NORAD_CAT_ID   = 28222
ELEMENT_SET_NO = 999
REV_AT_EPOCH   = 20084
BSTAR          = .66340717E-3
MEAN_MOTION_DOT = .5824E-3
MEAN_MOTION_DDOT = 0

CCSDS_OMM_VERS = 2.0
CREATION_DATE  = 
ORIGINATOR     = 

OBJECT_NAME    = SL-16 R/B
OBJECT_ID      = 2004-021B
CENTER_NAME    = EARTH
REF_FRAME      = TEME
TIME_SYSTEM    = UTC
MEAN_ELEMENT_THEORY = SGP/SGP4

EPOCH          = 2026-02-15T19:39:20.170080
MEAN_MOTION    = 14.14593949
ECCENTRICITY   = .00031857
INCLINATION    = 70.9989
RA_OF_ASC_NODE = 278.3918
ARG_OF_PERICENTER = 62.9342
MEAN_ANOMALY   = 297.2105

EPHEMERIS_TYPE = 0
CLASSIFICATION_TYPE = U
NORAD_CAT_ID   = 28353
ELEMENT_SET_NO = 999
REV_AT_EPOCH   = 11974
BSTAR          = .20287337E-3
MEAN_MOTION_DOT = .342E-5
MEAN_MOTION_DDOT = 0

CCSDS_OMM_VERS = 2.0
CREATION_DATE  = 
ORIGINATOR     = 

OBJECT_NAME    = CZ-4B R/B
OBJECT_ID      = 2004-035C
CENTER_NAME    = EARTH
REF_FRAME      = TEME
TIME_SYSTEM    = UTC
MEAN_ELEMENT_THEORY = SGP/SGP4

EPOCH          = 2026-02-15T14:10:17.434848
MEAN_MOTION    = 15.28647141
ECCENTRICITY   = .0033669
INCLINATION    = 97.3536
RA_OF_ASC_NODE = 81.1016
ARG_OF_PERICENTER = 49.5142
MEAN_ANOMALY   = 310.9023

EPHEMERIS_TYPE = 0
CLASSIFICATION_TYPE = U
NORAD_CAT_ID   = 28415
ELEMENT_SET_NO = 999
REV_AT_EPOCH   = 17653
BSTAR          = .31673E-3
MEAN_MOTION_DOT = .89E-4
MEAN_MOTION_DDOT = 0

CCSDS_OMM_VERS = 2.0
CREATION_DATE  = 
ORIGINATOR     = 

OBJECT_NAME    = CZ-2C R/B
OBJECT_ID      = 2004-046B
CENTER_NAME    = EARTH
REF_FRAME      = TEME
TIME_SYSTEM    = UTC
MEAN_ELEMENT_THEORY = SGP/SGP4

EPOCH          = 2026-02-15T17:58:03.319392
MEAN_MOTION    = 14.26984270
ECCENTRICITY   = .01385341
INCLINATION    = 98.1995
RA_OF_ASC_NODE = 323.0959
ARG_OF_PERICENTER = 219.4068
MEAN_ANOMALY   = 139.6973

EPHEMERIS_TYPE = 0
CLASSIFICATION_TYPE = U
NORAD_CAT_ID   = 28480
ELEMENT_SET_NO = 999
REV_AT_EPOCH   = 10537
BSTAR          = .5702641E-4
MEAN_MOTION_DOT = .112E-5
MEAN_MOTION_DDOT = 0

CCSDS_OMM_VERS = 2.0
CREATION_DATE  = 
ORIGINATOR     = 

OBJECT_NAME    = ARIANE 5 R/B
OBJECT_ID      = 2004-049H
CENTER_NAME    = EARTH
REF_FRAME      = TEME
TIME_SYSTEM    = UTC
MEAN_ELEMENT_THEORY = SGP/SGP4

EPOCH          = 2026-02-15T22:33:14.466528
MEAN_MOTION    = 14.85222669
ECCENTRICITY   = .00853186
INCLINATION    = 98.2590
RA_OF_ASC_NODE = 214.5882
ARG_OF_PERICENTER = 62.0280
MEAN_ANOMALY   = 298.9536

EPHEMERIS_TYPE = 0
CLASSIFICATION_TYPE = U
NORAD_CAT_ID   = 28499
ELEMENT_SET_NO = 999
REV_AT_EPOCH   = 14256
BSTAR          = .1134445E-3
MEAN_MOTION_DOT = .974E-5
MEAN_MOTION_DDOT = 0

CCSDS_OMM_VERS = 2.0
CREATION_DATE  = 
ORIGINATOR     = 

OBJECT_NAME    = CZ-2D R/B
OBJECT_ID      = 2005-024B
CENTER_NAME    = EARTH
REF_FRAME      = TEME
TIME_SYSTEM    = UTC
MEAN_ELEMENT_THEORY = SGP/SGP4

EPOCH          = 2026-02-15T22:50:23.104320
MEAN_MOTION    = 15.58187328
ECCENTRICITY   = .00076659
INCLINATION    = 97.3607
RA_OF_ASC_NODE = 61.3344
ARG_OF_PERICENTER = 98.2895
MEAN_ANOMALY   = 261.9230

EPHEMERIS_TYPE = 0
CLASSIFICATION_TYPE = U
NORAD_CAT_ID   = 28738
ELEMENT_SET_NO = 999
REV_AT_EPOCH   = 13639
BSTAR          = .56356009E-3
MEAN_MOTION_DOT = .42613E-3
MEAN_MOTION_DDOT = 0

