IDEFIX & ARIANE 42P R/B 
1 27422U 02021B   26046.82055040  .00000297  00000+0  12950-3 0  9991
2 27422  98.5848 345.6914 0010634 251.0888 108.9143 14.31010125240896
AQUA                    
1 27424U 02022A   26046.85566248  .00001149  00000+0  23941-3 0  9993
2 27424  98.4134  13.8299 0001258  48.5246  34.7556 14.61921809265540
CZ-4B R/B               
1 27432U 02024C   26046.80279256  .00000049  00000+0  47894-4 0  9991
2 27432  98.8890 100.3145 0051202  85.4667  32.6714 14.14543584226149
MIDORI II (ADEOS-II)    
1 27597U 02056A   26046.82207462  .00000333  00000+0  14892-3 0  9997
2 27597  98.7730   5.1541 0002163  72.3958 287.7460 14.29268635207175
H-2A R/B                
1 27601U 02056E   26046.86256315  .00000315  00000+0  12517-3 0  9990
2 27601  98.3163   8.0646 0069231 226.0102 188.2229 14.33745370210985
CZ-4B R/B               
1 28059U 03049C   26046.92783095  .00000513  00000+0  12938-3 0  9995
2 28059  98.6855  40.9829 0047139 298.9269  60.7203 14.54996738183431
CZ-2C R/B               
1 28222U 04012C   26046.71563671  .00058240  00000+0  66341-3 0  9998
2 28222  97.7291 109.9674 0015239  35.4919 324.7349 15.61942114200840
SL-16 R/B               
1 28353U 04021B   26046.81898345  .00000342  00000+0  20287-3 0  9992
2 28353  70.9989 278.3918 0003185  62.9342 297.2105 14.14593949119743
CZ-4B R/B               
1 28415U 04035C   26046.59047957  .00008900  00000+0  31673-3 0  9995
2 28415  97.3536  81.1016 0033669  49.5142 310.9023 15.28647141176533
CZ-2C R/B               
1 28480U 04046B   26046.74864953  .00000112  00000+0  57026-4 0  9997
2 28480  98.1995 323.0959 0138534 219.4068 139.6973 14.26984270105377
ARIANE 5 R/B            
1 28499U 04049H   26046.93975077  .00000974  00000+0  11344-3 0  9999
2 28499  98.2590 214.5882 0085318  62.0280 298.9536 14.85222669142565
CZ-2D R/B               
1 28738U 05024B   26046.95165630  .00042613  00000+0  56356-3 0  9995
2 28738  97.3607  61.3344 0007665  98.2895 261.9230 15.58187328136391
